[
    {
        "Altitude(m)": 604221.217365726,
        "Argument of Periapsis(deg)": 0.0,
        "Eccentricity": 0.0,
        "Inclination(deg)": 60.0,
        "Latitude(deg)": 14.117320208410279,
        "Longitude(deg)": 28.33412433274079,
        "Mean Anomaly(deg)": 16.363600000000012,
        "RAAN(deg)": 120.0,
        "Satellite Name": "Test1 529",
        "Satellite Number": 529,
        "Semi-Major Axis(m)": 6980739.136638005,
        "Time(s)": 0
    },
    {
        "Altitude(m)": 604235.3588374914,
        "Argument of Periapsis(deg)": 0.00010418945913296404,
        "Eccentricity": 0.0,
        "Inclination(deg)": 60.0,
        "Latitude(deg)": 14.651717563877849,
        "Longitude(deg)": 28.622570209389025,
        "Mean Anomaly(deg)": 16.983706145461838,
        "RAAN(deg)": 119.99957995086024,
        "Satellite Name": "Test1 529",
        "Satellite Number": 529,
        "Semi-Major Axis(m)": 6980739.136638005,
        "Time(s)": 10
    }
]